CALSPHERE 1             
1 00900U 64063C   16097.89177789  .00000357  00000-0  37773-3 0  9992
2 00900  90.1456   4.9672 0027222 348.6084  11.4460 13.72689592560157
CALSPHERE 2             
1 00902U 64063E   16097.80317293  .00000044  00000-0  53607-4 0  9999
2 00902  90.1517   7.2849 0016496 231.8196 196.9992 13.52631053353344
LCS 1                   
1 01361U 65034C   16096.86834461  .00000005  00000-0 -50980-3 0  9992
2 01361  32.1450  19.7633 0005870 300.4162  59.5755  9.89289178841058
TEMPSAT 1               
1 01512U 65065E   16096.92187527  .00000014  00000-0  10890-4 0  9991
2 01512  89.8051 250.1413 0068069 265.5821 213.1004 13.33390522463720
CALSPHERE 4(A)          
1 01520U 65065H   16097.21183693  .00000078  00000-0  13404-3 0  9996
2 01520  90.0945 118.8242 0069787 163.2422 260.8580 13.35695667465926
OPS 5712 (P/L 160)      
1 02826U 67053A   16097.20448272  .00000971  00000-0  28212-3 0  9996
2 02826  69.9290 182.3750 0008474 275.7482  84.2684 14.47202503525449
OPS 5712 (P/L 153)      
1 02874U 67053H   16097.57176544  .00000013  00000-0  48346-4 0  9997
2 02874  69.9735 171.4565 0008310 328.6978 130.5005 13.96258886487421
SURCAL 150B             
1 02909U 67053J   16097.86864454  .00001502  00000-0  33242-3 0  9994
2 02909  69.9479 272.6773 0002351 358.4135   1.6995 14.59172569533583
RIGIDSPHERE 2 (LCS 4)   
1 05398U 71067E   16097.89036638  .00000272  00000-0  90634-4 0  9999
2 05398  87.6172 286.5382 0061500 284.6064  74.8318 14.33408326340286
